{"centers":[{"center_id":638889,"name":"Nagur PHC Covaxin","district_name":"Bagalkot","state_name":"Karnataka","location":"Nagur PHC","pincode":"587118","block_name":"Hunagund","lat":"16.00580000","long":"76.01140000"},{"center_id":445688,"name":"Nagur PHC","district_name":"Bagalkot","state_name":"Karnataka","location":"Nagur","pincode":"587118","block_name":"Hunagund","lat":"16.00582500","long":"76.01158330"},{"center_id":659421,"name":"SC KATAPURA","district_name":"Koppal","state_name":"Karnataka","location":"KATAPURA","pincode":"583281","block_name":"Kushtagi","lat":"15.95988000","long":"75.98025000"},{"center_id":659421,"name":"SC KATAPURA","district_name":"Koppal","state_name":"Karnataka","location":"KATAPURA","pincode":"583281","block_name":"Kushtagi","lat":"15.95600000","long":"75.98134000"},{"center_id":659421,"name":"SC KATAPURA","district_name":"Koppal","state_name":"Karnataka","location":"KATAPURA","pincode":"583281","block_name":"Kushtagi","lat":"15.95469000","long":"75.98315000"},{"center_id":659421,"name":"SC KATAPURA","district_name":"Koppal","state_name":"Karnataka","location":"KATAPURA","pincode":"583281","block_name":"Kushtagi","lat":"15.95287000","long":"75.98279000"},{"center_id":659421,"name":"SC KATAPURA","district_name":"Koppal","state_name":"Karnataka","location":"KATAPURA","pincode":"583281","block_name":"Kushtagi","lat":"15.94634000","long":"75.97626000"},{"center_id":559675,"name":"Hoolagere PHC (Mopup)","district_name":"Koppal","state_name":"Karnataka","location":"Hoolagere","pincode":"583281","block_name":"Kushtagi","lat":"15.96000000","long":"76.05000000"},{"center_id":559675,"name":"PHC HOOLAGERA CVC 2.0","district_name":"Koppal","state_name":"Karnataka","location":"Hoolagere","pincode":"583281","block_name":"Kushtagi","lat":"15.96000000","long":"76.05000000"},{"center_id":578148,"name":"PHC HOOLAGERA 2.0","district_name":"Koppal","state_name":"Karnataka","location":"PHC HOOLAGERA","pincode":"583281","block_name":"Kushtagi","lat":"15.95872000","long":"76.04989000"},{"center_id":578148,"name":"PHC HOOLAGERA 2.0","district_name":"Koppal","state_name":"Karnataka","location":"PHC HOOLAGERA","pincode":"583281","block_name":"Kushtagi","lat":"15.95000000","long":"76.05000000"},{"center_id":578148,"name":"PHC HOOLAGERA","district_name":"Koppal","state_name":"Karnataka","location":"PHC HOOLAGERA","pincode":"583281","block_name":"Kushtagi","lat":"15.95000000","long":"76.05000000"},{"center_id":659421,"name":"SC KATAPURA","district_name":"Koppal","state_name":"Karnataka","location":"KATAPURA","pincode":"583281","block_name":"Kushtagi","lat":"15.95000000","long":"76.05000000"},{"center_id":659426,"name":"SC KATAPURA CVC","district_name":"Koppal","state_name":"Karnataka","location":"KATAPURA","pincode":"583281","block_name":"Kushtagi","lat":"15.95000000","long":"76.05000000"},{"center_id":659429,"name":"SC YEREGONAL","district_name":"Koppal","state_name":"Karnataka","location":"YEREGONAL","pincode":"583281","block_name":"Kushtagi","lat":"15.95000000","long":"76.05000000"},{"center_id":659437,"name":"SC YEREGONAL CVC","district_name":"Koppal","state_name":"Karnataka","location":"YEREGONAL","pincode":"583281","block_name":"Kushtagi","lat":"15.95000000","long":"76.05000000"},{"center_id":481469,"name":"Hulagera 2","district_name":"Koppal","state_name":"Karnataka","location":"Huligera","pincode":"583281","block_name":"Kushtagi","lat":"15.95540000","long":"76.05600000"},{"center_id":481470,"name":"Hulagera 3","district_name":"Koppal","state_name":"Karnataka","location":"Huligera","pincode":"583281","block_name":"Kushtagi","lat":"15.95540000","long":"76.05600000"},{"center_id":481471,"name":"Hulagera 4","district_name":"Koppal","state_name":"Karnataka","location":"Huligera","pincode":"583281","block_name":"Kushtagi","lat":"15.95540000","long":"76.05600000"},{"center_id":578148,"name":"PHC HOOLAGERA 2.0","district_name":"Koppal","state_name":"Karnataka","location":"PHC HOOLAGERA","pincode":"583281","block_name":"Kushtagi","lat":"15.95826000","long":"76.05932000"},{"center_id":547357,"name":"Aminagad PHC","district_name":"Bagalkot","state_name":"Karnataka","location":"Primary Health Center Aminagad","pincode":"587112","block_name":"Hunagund","lat":"16.05560000","long":"75.95420000"},{"center_id":638979,"name":"Aminagada PHC Covaxin","district_name":"Bagalkot","state_name":"Karnataka","location":"Ameenagada PHC","pincode":"587112","block_name":"Hunagund","lat":"16.05560000","long":"75.95420000"},{"center_id":578148,"name":"PHC HOOLAGERA 2.0","district_name":"Koppal","state_name":"Karnataka","location":"PHC HOOLAGERA","pincode":"583281","block_name":"Kushtagi","lat":"15.95532000","long":"76.05823000"},{"center_id":547431,"name":"Sulebhavi PHC","district_name":"Bagalkot","state_name":"Karnataka","location":"Aihole -Aminagad Road Sulebhavi","pincode":"587124","block_name":"Hunagund","lat":"16.04814000","long":"75.94215000"},{"center_id":547431,"name":"Sulebhavi PHC","district_name":"Bagalkot","state_name":"Karnataka","location":"Aihole -Aminagad Road Sulebhavi","pincode":"587124","block_name":"Hunagund","lat":"16.04540000","long":"75.93910000"},{"center_id":638992,"name":"Sulebhavi PHC Covaxin","district_name":"Bagalkot","state_name":"Karnataka","location":"Sulebhavi PHC","pincode":"587124","block_name":"Hunagund","lat":"16.04540000","long":"75.93910000"},{"center_id":547431,"name":"Sulebhavi PHC","district_name":"Bagalkot","state_name":"Karnataka","location":"Aihole -Aminagad Road Sulebhavi","pincode":"587124","block_name":"Hunagund","lat":"16.04545000","long":"75.93891000"},{"center_id":638992,"name":"Sulebhavi PHC Covaxin","district_name":"Bagalkot","state_name":"Karnataka","location":"Sulebhavi PHC","pincode":"587124","block_name":"Hunagund","lat":"16.04547000","long":"75.93891000"},{"center_id":578148,"name":"PHC HOOLAGERA 2.0","district_name":"Koppal","state_name":"Karnataka","location":"PHC HOOLAGERA","pincode":"583281","block_name":"Kushtagi","lat":"15.95448000","long":"76.06221000"},{"center_id":707055,"name":"Guru Bhavan Hunagund","district_name":"Bagalkot","state_name":"Karnataka","location":"Near Bus Stand , Ilakl road Hunagund","pincode":"587118","block_name":"Hunagund","lat":"16.05000000","long":"76.06000000"},{"center_id":547320,"name":"Aihole PHC","district_name":"Bagalkot","state_name":"Karnataka","location":"Aihole","pincode":"587124","block_name":"Hunagund","lat":"16.03423000","long":"75.92727000"},{"center_id":547320,"name":"Aihole PHC","district_name":"Bagalkot","state_name":"Karnataka","location":"Aihole","pincode":"587124","block_name":"Hunagund","lat":"16.03124000","long":"75.92546000"},{"center_id":547320,"name":"Aihole PHC","district_name":"Bagalkot","state_name":"Karnataka","location":"Aihole","pincode":"587124","block_name":"Hunagund","lat":"16.02982000","long":"75.92038000"},{"center_id":547320,"name":"Aihole PHC","district_name":"Bagalkot","state_name":"Karnataka","location":"Aihole","pincode":"587124","block_name":"Hunagund","lat":"16.05915000","long":"75.94034000"},{"center_id":547320,"name":"Aihole PHC","district_name":"Bagalkot","state_name":"Karnataka","location":"Aihole","pincode":"587124","block_name":"Hunagund","lat":"16.05833000","long":"75.93888000"},{"center_id":638921,"name":"Aihole PHC Cavaxin","district_name":"Bagalkot","state_name":"Karnataka","location":"Aihole PHC","pincode":"587124","block_name":"Hunagund","lat":"16.05831000","long":"75.93852000"},{"center_id":635896,"name":"Hunagund TH Covaxin","district_name":"Bagalkot","state_name":"Karnataka","location":"Taluka Hospital Hunagund","pincode":"587118","block_name":"Hunagund","lat":"16.06680000","long":"76.05970000"},{"center_id":635896,"name":"Hunagund TH Covaxin","district_name":"Bagalkot","state_name":"Karnataka","location":"Taluka Hospital Hunagund","pincode":"587118","block_name":"Hunagund","lat":"16.06681000","long":"76.05986000"}],"ttl":24}
